TDRS 3                  
1 19548U 88091B   26064.79815523 -.00000303  00000+0  00000+0 0  9996
2 19548  12.6797 341.6841 0044183 353.3967  66.2018  1.00259845124356
HST                     
1 20580U 90037B   26066.07173350  .00008800  00000+0  29166-3 0  9992
2 20580  28.4710  57.8566 0001811 100.2256 259.8544 15.29432289772911
TDRS 5                  
1 21639U 91054B   26066.25197106  .00000084  00000+0  00000+0 0  9991
2 21639  14.0837 354.5317 0010414 278.0278 175.5224  1.00267942126699
TDRS 6                  
1 22314U 93003B   26066.26933102 -.00000295  00000+0  00000+0 0  9998
2 22314  14.1809 357.8140 0005464 200.0419  18.1655  1.00277703121388
TDRS 7                  
1 23613U 95035B   26066.60692465 -.00000238  00000+0  00000+0 0  9997
2 23613  13.4192 348.8868 0008295  47.8549  76.1157  1.00275653112238
ISS (ZARYA)             
1 25544U 98067A   26066.51273615  .00014539  00000+0  27602-3 0  9991
2 25544  51.6318  83.1189 0008132 167.0679 193.0520 15.48507964555998
TERRA                   
1 25994U 99068A   26066.60337939  .00000605  00000+0  13241-3 0  9995
2 25994  97.9598 120.1178 0002573 156.4312 323.6835 14.61012261394771
TDRS 8                  
1 26388U 00034A   26066.58786142 -.00000196  00000+0  00000+0 0  9990
2 26388  12.5241  32.1691 0006145 309.7251 119.8300  1.00275904 94169
TIMED                   
1 26998U 01055B   26066.43770241  .00002003  00000+0  18659-3 0  9999
2 26998  74.0661  79.8529 0003020 277.7994  82.2848 14.95014644315616
AQUA                    
1 27424U 02022A   26066.63004551  .00001523  00000+0  31373-3 0  9999
2 27424  98.4173  33.9574 0000578  71.1611 343.2161 14.61971555268438
SORCE                   
1 27651U 03004A   26066.44015207  .00004771  00000+0  35759-3 0  9991
2 27651  39.9900 121.9226 0016129  37.8131 322.3793 15.03078213256583
AURA                    
1 28376U 04026A   26066.57413655  .00001503  00000+0  31533-3 0  9990
2 28376  98.3308  22.2633 0001027  82.2153 277.9164 14.61143680151375
SWIFT                   
1 28485U 04047A   26066.62590232  .00053633  00000+0  64494-3 0  9990
2 28485  20.5529 242.9053 0003634   6.7903 353.2591 15.59064800170945
THEMIS A                
1 30580U 07004A   26065.25425208 -.00000231  00000+0 -57120-2 0  9998
2 30580   6.7657 120.0357 8404679 177.7629 194.1197  0.87846947 40373
THEMIS D                
1 30797U 07004D   26066.26488951 -.00000290  00000+0  00000+0 0  9990
2 30797   6.6383  84.5912 8357374 216.1300 140.9261  0.87835920 40181
THEMIS E                
1 30798U 07004E   26066.26549618 -.00000290  00000+0  00000+0 0  9999
2 30798   4.1650  99.7460 8361289 201.9271 155.5234  0.87837670 65023
FGRST (GLAST)           
1 33053U 08029A   26066.65237779  .00005521  00000+0  21211-3 0  9991
2 33053  25.5811 189.1749 0008042 204.3824 155.6334 15.23313641980333
TDRS 11                 
1 39070U 13004A   26066.31080122  .00000080  00000+0  00000+0 0  9990
2 39070   3.3716  29.4083 0004028 351.8060  81.3971  1.00277594 45670
TDRS 12                 
1 39504U 14004A   26066.38406661 -.00000271  00000+0  00000+0 0  9993
2 39504   3.8788  17.2955 0003845 268.4615 336.6742  1.00269042 43257
GPM-CORE                
1 39574U 14009C   26066.63844432  .00009981  00000+0  21746-3 0  9995
2 39574  64.9726 288.3589 0012407 265.3726  94.5997 15.44673161682122
MMS 1                   
1 40482U 15011A   26066.66668981 -.00001960  00000+0  00000+0 0  9991
2 40482  70.8039 350.1874 8413516 165.3182  23.3942  0.28288532  1348
MMS 2                   
1 40483U 15011B   26066.66668981 -.00001961  00000+0  00000+0 0  9993
2 40483  70.8045 350.1889 8414442 165.3260  23.3722  0.28284467  1347
MMS 3                   
1 40484U 15011C   26066.66668981 -.00001960  00000+0  00000+0 0  9993
2 40484  70.8065 350.1942 8413531 165.3184  23.3861  0.28288468  1342
MMS 4                   
1 40485U 15011D   26066.66668981 -.00001960  00000+0  00000+0 0  9994
2 40485  70.8049 350.1888 8413229 165.3275  23.3661  0.28284380  1346
TDRS 13                 
1 42915U 17047A   26066.29244964 -.00000101  00000+0  00000+0 0  9991
2 42915   3.4300   0.1345 0010548  98.6431 160.0313  1.00272357 31325
NOAA 20 (JPSS-1)        
1 43013U 17073A   26066.57286887  .00000144  00000+0  89001-4 0  9990
2 43013  98.7690   6.9811 0001129 140.6553 219.4706 14.19535495430051
